Name,Category,Region,County,Golf,Camp,Playground,Nature Center,Beach,Facility URL,Golf URL,Nature Center URL,Longitude,Latitude,Location
Watkins Glen,State Park,4,Schuyler,N,Y,Y,,Y,https://parks.ny.gov/parks/142/details.aspx,,,-76.90013376,42.36753974,"(42.36753974, -76.90013376)"
New Windsor Cantonement,State Historic Site,8,Orange,N,N,N,,N,https://parks.ny.gov/historic-sites/22/details.aspx,,,-74.05945727,41.47339278,"(41.47339278, -74.05945727)"
Clinton House,State Historic Site,7,Dutchess,N,N,N,,N,https://parks.ny.gov/historic-sites/1/details.aspx,,,-73.91624471,41.70036495,"(41.70036495, -73.91624471)"
FDR Four Freedoms,State Park,12,Manhattan,N,N,N,N,N,https://parks.ny.gov/parks/186/details.aspx,,,-73.96037937,40.75067655,"(40.75067655, -73.96037937)"
Mine Kill,State Park,11,Schoharie,N,N,Y,,N,https://parks.ny.gov/parks/165/details.aspx,,,-74.4611211,42.43402454,"(42.43402454, -74.4611211)"
Amherst,State Park,1,Erie,N,N,N,,N,,,,-78.74808818,42.97100087,"(42.97100087, -78.74808818)"
Mexico Point Marine Park,Marine Facility,5,Oswego,N,N,N,,N,https://parks.ny.gov/parks/183/details.aspx,,,-76.25514321,43.52337504,"(43.52337504, -76.25514321)"
Montauk Point,State Park,9,Suffolk,N,N,Y,,N,https://parks.ny.gov/parks/61/details.aspx,,,-71.88138835,41.07145028,"(41.07145028, -71.88138835)"
Peter Jay,Other,7,Westchester,N,N,N,,N,https://parks.ny.gov/historic-sites/39/details.aspx,,,-73.70587755,40.95694601,"(40.95694601, -73.70587755)"
Whetstone Gulf,State Park,10,Lewis,N,Y,Y,,Y,https://parks.ny.gov/parks/92/details.aspx,,,-75.47741546,43.69850757,"(43.69850757, -75.47741546)"
Darwin Martin House Complex and Visitor Center,State Historic Site,1,Erie,N,N,N,,N,https://parks.ny.gov/historic-sites/35/details.aspx,,,-78.8480452,42.93609209,"(42.93609209, -78.8480452)"
Taconic,State Park,7,Dutchess,N,Y,Y,N,Y-M,https://parks.ny.gov/parks/83/details.aspx,,,-73.51743928,42.07786386,"(42.07786386, -73.51743928)"
Denny Farrell Riverbank,State Park,12,Manhattan,N,N,Y,,N,https://parks.ny.gov/parks/93/details.aspx,,,-73.95685417,40.82553482,"(40.82553482, -73.95685417)"
Long Point,State Park,10,Jefferson,N,Y,Y,,N,https://parks.ny.gov/parks/54/details.aspx,,,-76.21705748,44.02844022,"(44.02844022, -76.21705748)"
Fort Niagara,State Park,1,Niagara,N,N,Y,Y,N,https://parks.ny.gov/parks/175/details.aspx,,https://parks.ny.gov/environment/nature-centers/17/details.aspx,-79.05258585,43.26163494,"(43.26163494, -79.05258585)"
Lodi Point Marine Park,Marine Facility,4,Seneca,N,N,Y,,N,https://parks.ny.gov/parks/89/details.aspx,,,-76.87683054,42.61824659,"(42.61824659, -76.87683054)"
Schunnemunk,State Park,8,Orange,N,N,N,,N,https://parks.ny.gov/parks/184/details.aspx,,,-74.10271725,41.40211076,"(41.40211076, -74.10271725)"
Bethpage,State Park,9,Nassau,Y,N,Y,,N,https://parks.ny.gov/parks/108/details.aspx,https://parks.ny.gov/golf/11/details.aspx,,-73.45680354,40.74751741,"(40.74751741, -73.45680354)"
Planting Fields Arboretum,State Historic Park,9,Nassau,N,N,N,N,N,https://parks.ny.gov/historic-sites/24/details.aspx,,,-73.55722533,40.86217528,"(40.86217528, -73.55722533)"
Canoe Picnic Point,State Park,10,Jefferson,N,Y,N,,N,https://parks.ny.gov/parks/64/details.aspx,,,-76.07471216,44.30417139,"(44.30417139, -76.07471216)"
Beechwood,State Park,4,Wayne,N,N,N,,N,,,,-77.0337933,43.26669445,"(43.26669445, -77.0337933)"
Allegheny Reservoir Boat Launch,Marine Facility,2,Cattaraugus,N,N,N,N,N,,,,-78.88047447,42.05885118,"(42.05885118, -78.88047447)"
Lakeside Beach,State Park,3,Orleans,N,Y,Y,,N,https://parks.ny.gov/parks/161/details.aspx,,,-78.24370249,43.36638358,"(43.36638358, -78.24370249)"
Barcelona Lighthouse,State Park,2,Chautauqua,N,N,N,N,N,https://parks.ny.gov/parks/196/details.aspx,,,-79.5951487,42.34102814,"(42.34102814, -79.5951487)"
Harriet Hollister Spencer,State Park,4,Ontario,N,N,N,,N,https://parks.ny.gov/parks/164/details.aspx,,,-77.51547809,42.688112,"(42.688112, -77.51547809)"
Knox Farm,State Park,1,Erie,N,N,N,,N,https://parks.ny.gov/parks/163/details.aspx,,,-78.64774994,42.77386727,"(42.77386727, -78.64774994)"
Burnham Point,State Park,10,Jefferson,N,Y,Y,,N,https://parks.ny.gov/parks/57/details.aspx,,,-76.26444427,44.16250249,"(44.16250249, -76.26444427)"
Lake Taghkanic,State Park,7,Columbia,N,Y,Y,,Y-M,https://parks.ny.gov/parks/38/details.aspx,,,-73.70588782,42.09288182,"(42.09288182, -73.70588782)"
Blauvelt,State Park,8,Rockland,N,N,N,,N,https://parks.ny.gov/parks/49/details.aspx,,,-73.93737308,41.07424137,"(41.07424137, -73.93737308)"
Grass Point,State Park,10,Jefferson,N,Y,Y,,Y,https://parks.ny.gov/parks/139/details.aspx,,,-75.99593007,44.28176681,"(44.28176681, -75.99593007)"
Camp Hero,State Park,9,Suffolk,N,N,N,,N,https://parks.ny.gov/parks/97/details.aspx,,,-71.8777873,41.06177195,"(41.06177195, -71.8777873)"
Coles Creek,State Park,10,St. Lawrence,N,Y,Y,,Y,https://parks.ny.gov/parks/72/details.aspx,,,-75.12323609,44.88473357,"(44.88473357, -75.12323609)"
Whirlpool,State Park,1,Niagara,N,N,Y,,N,https://parks.ny.gov/parks/105/details.aspx,,,-79.06341797,43.12040048,"(43.12040048, -79.06341797)"
Cayuga Lake,State Park,4,Seneca,N,Y,Y,,Y,https://parks.ny.gov/parks/123/details.aspx,,,-76.75531185,42.89795191,"(42.89795191, -76.75531185)"
Robert V. Riddell,State Park,5,Otsego,N,N,N,,N,https://parks.ny.gov/parks/18/details.aspx,,,-74.93710757,42.47625451,"(42.47625451, -74.93710757)"
Belmont Lake,State Park,9,Suffolk,N,N,Y,,N,https://parks.ny.gov/parks/88/details.aspx,,,-73.336795,40.7262324,"(40.7262324, -73.336795)"
Hudson River Islands,State Park,11,Columbia/Greene,N,Y,N,,N,https://parks.ny.gov/parks/98/details.aspx,,,-73.7783764,42.32888525,"(42.32888525, -73.7783764)"
Long Point,State Park,4,Cayuga,N,Y,Y,,Y,https://parks.ny.gov/parks/170/details.aspx,,,-76.69840928,42.71741104,"(42.71741104, -76.69840928)"
Fort Ontario,State Historic Site,5,Oswego,N,N,N,,N,https://parks.ny.gov/historic-sites/20/details.aspx,,,-76.50744715,43.46612424,"(43.46612424, -76.50744715)"
Sunset Bay State Marine Park,Marine Facility,2,Chautauqua,N,N,N,N,N,https://parks.ny.gov/parks/194/details.aspx,,,-79.134885,42.56726514,"(42.56726514, -79.134885)"
Westcott Beach,State Park,10,Jefferson,N,Y,Y,,Y-M,https://parks.ny.gov/parks/90/details.aspx,,,-76.11801703,43.89698048,"(43.89698048, -76.11801703)"
Heckscher,State Park,9,Suffolk,N,Y,Y,,Y-M,https://parks.ny.gov/parks/136/details.aspx,,,-73.16492238,40.70866151,"(40.70866151, -73.16492238)"
Valley Stream,State Park,9,Nassau,N,N,Y,,N,https://parks.ny.gov/parks/159/details.aspx,,,-73.6942502,40.67876603,"(40.67876603, -73.6942502)"
Southwick Beach,State Park,10,Jefferson,N,Y,Y,,Y-M,https://parks.ny.gov/parks/36/details.aspx,,,-76.20460033,43.76329127,"(43.76329127, -76.20460033)"
Shirley Chisholm,State Park,12,Kings,N,N,N,N,N,https://parks.ny.gov/parks/200/details.aspx,,,-73.86532399,40.64601642,"(40.64601642, -73.86532399)"
Hudson Highlands,State Park Preserve,7,Dutch/Put,N,N,N,,N,https://parks.ny.gov/parks/9/details.aspx,,,-73.96211032,41.43375567,"(41.43375567, -73.96211032)"
Rexford Aqueduct,Other,11,Sara/Schen,N,N,N,,N,,,,-73.88767645,42.84926496,"(42.84926496, -73.88767645)"
Taxter Ridge,Other,7,Westchester,N,N,N,,N,,,,-73.83877677,41.05511939,"(41.05511939, -73.83877677)"
Hyde Hall,State Historic Site,5,Otsego,N,N,N,,N,https://parks.ny.gov/historic-sites/11/details.aspx,,,-74.8739967,42.79373333,"(42.79373333, -74.8739967)"
Tallman Mountain,State Park,8,Rockland,N,N,Y,,N,https://parks.ny.gov/parks/119/details.aspx,,,-73.91033132,41.02642268,"(41.02642268, -73.91033132)"
Pinnacle,State Park,4,Steuben,N,N,N,,N,,,,-77.21456092,42.09735297,"(42.09735297, -77.21456092)"
Cherry Plain,State Park,11,Rensselaer,N,Y,Y,,Y,https://parks.ny.gov/parks/173/details.aspx,,,-73.41221527,42.61786779,"(42.61786779, -73.41221527)"
High Tor,State Park,8,Rockland,N,N,N,,N,https://parks.ny.gov/parks/78/details.aspx,,,-73.98401299,41.19061787,"(41.19061787, -73.98401299)"
Old Erie Canal,State Historic Park,5,Onon/Mad/Oneida,N,N,N,,N,https://parks.ny.gov/historic-sites/32/details.aspx,,,-75.92176935,43.0754747,"(43.0754747, -75.92176935)"
Highland Lakes,State Park,8,Orange,N,N,N,,N,https://parks.ny.gov/parks/5/details.aspx,,,-74.32857545,41.49130058,"(41.49130058, -74.32857545)"
Philipse Manor Hall,State Historic Site,7,Westchester,N,N,N,,N,https://parks.ny.gov/historic-sites/37/details.aspx,,,-73.89931286,40.93555005,"(40.93555005, -73.89931286)"
Schuyler Mansion,State Historic Site,11,Albany,N,N,N,,N,https://parks.ny.gov/historic-sites/33/details.aspx,,,-73.75928699,42.64132297,"(42.64132297, -73.75928699)"
Beaver Island,State Park,1,Erie,Y,N,Y,Y,Y,https://parks.ny.gov/parks/56/details.aspx,https://parks.ny.gov/golf/4/details.aspx,https://parks.ny.gov/environment/nature-centers/11/details.aspx,-78.95310636,42.96576594,"(42.96576594, -78.95310636)"
Chenango Valley,State Park,5,Broome,Y,Y,Y,,Y,https://parks.ny.gov/parks/41/details.aspx,https://parks.ny.gov/golf/20/details.aspx,,-75.83623684,42.21554025,"(42.21554025, -75.83623684)"
Point Au Roche Boat Launch,Marine Facility,10,Clinton,N,N,N,,N,,,,-73.36439068,44.80297115,"(44.80297115, -73.36439068)"
Max V. Shaul,State Park,11,Schoharie,N,Y,Y,,N,https://parks.ny.gov/parks/94/details.aspx,,,-74.41092231,42.54799377,"(42.54799377, -74.41092231)"
DeVeaux Woods,State Park,1,Erie,N,N,Y,,N,https://parks.ny.gov/parks/11/details.aspx,,,-79.05874318,43.1194168,"(43.1194168, -79.05874318)"
East River,State Park,12,Kings,N,N,Y,,N,https://parks.ny.gov/parks/155/details.aspx,,,-73.96205753,40.72142461,"(40.72142461, -73.96205753)"
Parrot Hall,State Historic Site,4,Ontario,N,N,N,,N,,,,-77.00881425,42.87677396,"(42.87677396, -77.00881425)"
Quiet Cove Riverfront Park,Other,7,Dutchess,N,N,N,,N,,,,-73.93449945,41.73322539,"(41.73322539, -73.93449945)"
John Burroughs Memorial,State Historic Site,5,Delaware,N,N,N,,N,https://parks.ny.gov/historic-sites/3/details.aspx,,,-74.58596903,42.29474198,"(42.29474198, -74.58596903)"
Kring Point,State Park,10,Jefferson,N,Y,Y,,Y,https://parks.ny.gov/parks/14/details.aspx,,,-75.85615854,44.37718875,"(44.37718875, -75.85615854)"
Bennington Battlefield,State Historic Site,11,Rensselaer,N,N,N,,N,https://parks.ny.gov/historic-sites/12/details.aspx,,,-73.3022506,42.93950615,"(42.93950615, -73.3022506)"
Donald J. Trump,State Park,7,Putnam/Westchester,N,N,N,,N,,,,-73.80837178,41.34539868,"(41.34539868, -73.80837178)"
Midway,State Park,2,Chautauqua,N,N,N,,N,https://parks.ny.gov/parks/167/details.aspx,,,-79.4224274,42.20087248,"(42.20087248, -79.4224274)"
Letchworth,State Park,3,Liv/Wyo,N,Y,Y,Y-A,N,https://parks.ny.gov/parks/79/details.aspx,,https://parks.ny.gov/environment/nature-centers/19/details.aspx,-77.97576922,42.64592135,"(42.64592135, -77.97576922)"
Cold Spring Harbor,State Park,9,Suffolk,N,N,N,,N,https://parks.ny.gov/parks/115/details.aspx,,,-73.46022301,40.86283939,"(40.86283939, -73.46022301)"
Battle Island,State Park,5,Oswego,Y,N,N,,N,https://parks.ny.gov/parks/44/details.aspx,https://parks.ny.gov/golf/5/details.aspx,,-76.43604418,43.36167093,"(43.36167093, -76.43604418)"
Cumberland Bay,State Park,10,Clinton,N,Y,Y,,Y,https://parks.ny.gov/parks/34/details.aspx,,,-73.42117996,44.73334654,"(44.73334654, -73.42117996)"
Wilson-Tuscarora,State Park,1,Niagara,N,N,Y,,Y,https://parks.ny.gov/parks/69/details.aspx,,,-78.85560888,43.30377729,"(43.30377729, -78.85560888)"
Minnewaska,State Park Preserve,8,Ulster,N,N,N,Y,Y-M,https://parks.ny.gov/parks/127/details.aspx,,,-74.29323529,41.71581549,"(41.71581549, -74.29323529)"
Hempstead Lake,State Park,9,Nassau,N,N,Y,,N,https://parks.ny.gov/parks/31/details.aspx,,,-73.64242151,40.682314,"(40.682314, -73.64242151)"
Darien Lakes,State Park,3,Genesee,N,Y,Y,,Y,https://parks.ny.gov/parks/144/details.aspx,,,-78.4114923,42.91181416,"(42.91181416, -78.4114923)"
Pixley Falls,State Park,5,Oneida,N,N,N,,N,https://parks.ny.gov/parks/32/details.aspx,,,-75.34147555,43.40431845,"(43.40431845, -75.34147555)"
John Boyd Thacher,State Park,11,Albany,N,Y,Y,Y-A,N,https://parks.ny.gov/parks/128/details.aspx,,https://parks.ny.gov/environment/nature-centers/8/details.aspx,-74.01470616,42.65546552,"(42.65546552, -74.01470616)"
Roberto Clemente,State Park,12,Bronx,N,N,Y,,N,https://parks.ny.gov/parks/140/details.aspx,,,-73.92004274,40.85536367,"(40.85536367, -73.92004274)"
Great Chazy Boat Launch,Marine Facility,10,Clinton,N,N,N,,N,,,,-73.38722476,44.93159446,"(44.93159446, -73.38722476)"
Sonnenberg Gardens and Mansion,State Historic Park,4,Ontario,N,N,N,,N,https://parks.ny.gov/historic-sites/36/details.aspx,,,-77.2721596,42.89814677,"(42.89814677, -77.2721596)"
Steuben Memorial,State Historic Site,5,Oneida,N,N,N,,N,https://parks.ny.gov/historic-sites/2/details.aspx,,,-75.2324893,43.3381057,"(43.3381057, -75.2324893)"
Crown Point,State Historic Site,11,Essex,N,N,N,,N,https://parks.ny.gov/historic-sites/34/details.aspx,,,-73.43166319,44.02332481,"(44.02332481, -73.43166319)"
Caleb Smith Park Preserve,State Park Preserve,9,Suffolk,N,N,N,Y-A,N,https://parks.ny.gov/parks/124/details.aspx,,https://parks.ny.gov/environment/nature-centers/9/details.aspx,-73.22601645,40.85303798,"(40.85303798, -73.22601645)"
Evangola,State Park,1,Erie,N,Y,Y,Y,Y,https://parks.ny.gov/parks/91/details.aspx,,https://parks.ny.gov/environment/nature-centers/16/details.aspx,-79.10185926,42.60579936,"(42.60579936, -79.10185926)"
Chaumont Boat Launch,Marine Facility,10,Jefferson,N,N,N,,N,,,,-76.14980352,44.06940899,"(44.06940899, -76.14980352)"
Honeoye Marine Park,Marine Facility,4,Ontario,N,N,N,,N,https://parks.ny.gov/parks/162/details.aspx,,,-77.50457815,42.72575402,"(42.72575402, -77.50457815)"
Montauk Downs,State Park,9,Suffolk,Y,N,N,,N,https://parks.ny.gov/parks/29/details.aspx,https://parks.ny.gov/golf/8/details.aspx,,-71.9385278,41.04928768,"(41.04928768, -71.9385278)"
Rockland Lake,State Park,8,Rockland,Y,N,N,Y,N,https://parks.ny.gov/parks/81/details.aspx,https://parks.ny.gov/golf/6/details.aspx,,-73.92191924,41.13621068,"(41.13621068, -73.92191924)"
John Jay Homestead,State Historic Site,7,Westchester,N,N,N,,N,https://parks.ny.gov/historic-sites/4/details.aspx,,,-73.65880641,41.25034096,"(41.25034096, -73.65880641)"
Bear Mountain,State Park,8,Rockland/Orange,N,N,Y,Y-A,N,https://parks.ny.gov/parks/145/details.aspx,,https://parks.ny.gov/environment/nature-centers/20/details.aspx,-73.99240161,41.29900423,"(41.29900423, -73.99240161)"
Grafton Lakes,State Park,11,Rensselaer,N,N,Y,Y-A,Y,https://parks.ny.gov/parks/53/details.aspx,,https://parks.ny.gov/environment/nature-centers/1/details.aspx,-73.44286108,42.78418998,"(42.78418998, -73.44286108)"
Delta Lake,State Park,5,Oneida,N,Y,Y,,Y,https://parks.ny.gov/parks/66/details.aspx,,,-75.42187224,43.29096558,"(43.29096558, -75.42187224)"
DeWolf Point,State Park,10,Jefferson,N,Y,N,,N,https://parks.ny.gov/parks/22/details.aspx,,,-75.9901418,44.33274077,"(44.33274077, -75.9901418)"
St. Lawrence,State Park,10,St. Lawrence,Y,N,N,,N,https://parks.ny.gov/parks/70/details.aspx,https://parks.ny.gov/golf/2/details.aspx,,-75.57656984,44.62983634,"(44.62983634, -75.57656984)"
State Park at the Fair,State Park,5,Onondaga,N,N,N,,N,https://parks.ny.gov/parks/82/details.aspx,,,-76.21696591,43.07110463,"(43.07110463, -76.21696591)"
Orient Beach,State Park,9,Suffolk,N,N,Y,,Y,https://parks.ny.gov/parks/106/details.aspx,,,-72.27152525,41.12855132,"(41.12855132, -72.27152525)"
Joseph Davis,State Park,1,Niagara,N,N,Y,,N,https://parks.ny.gov/parks/45/details.aspx,,,-79.03992446,43.21412115,"(43.21412115, -79.03992446)"
Goosepond Mountain,State Park,8,Orange,N,N,N,,N,https://parks.ny.gov/parks/55/details.aspx,,,-74.24664764,41.33752483,"(41.33752483, -74.24664764)"
Allan H. Treman,Marine Facility,4,Tompkins,N,N,N,,N,https://parks.ny.gov/parks/35/details.aspx,,,-76.51756817,42.46139668,"(42.46139668, -76.51756817)"
Hook Mountain,State Park,8,Rockland,N,N,N,,N,,,,-73.91588172,41.1517064,"(41.1517064, -73.91588172)"
Canadarago Boat Marine Park,Marine Facility,5,Otsego,N,N,N,,N,,,,-75.01298786,42.81858875,"(42.81858875, -75.01298786)"
Franny Reese Preserve,State Park,8,Ulster,N,N,N,,N,https://parks.ny.gov/parks/192/details.aspx,,,-73.95596437,41.70146445,"(41.70146445, -73.95596437)"
Peebles Island,State Park,11,Saratoga,N,N,N,,N,https://parks.ny.gov/parks/111/details.aspx,,,-73.68454923,42.78232136,"(42.78232136, -73.68454923)"
Hart's Brook Nature Preserve & Arboretum,Other,7,Westchester,N,N,N,,N,,,,-73.80806017,41.01796144,"(41.01796144, -73.80806017)"
Susan B Anthony,State Historic Site,11,Washington,N,N,N,,N,,,,-73.42311978,43.11052997,"(43.11052997, -73.42311978)"
Big Six Mile Creek Marina,Marine Facility,1,Erie,N,N,N,,N,https://parks.ny.gov/parks/50/details.aspx,,,-79.0109877,43.02319516,"(43.02319516, -79.0109877)"
Point Au Roche,State Park,10,Clinton,N,N,Y,Y,Y,https://parks.ny.gov/parks/30/details.aspx,,,-73.38769347,44.77840043,"(44.77840043, -73.38769347)"
Hither Hills,State Park,9,Suffolk,N,Y,Y,Y,Y,https://parks.ny.gov/parks/122/details.aspx,,,-72.02131304,41.01605601,"(41.01605601, -72.02131304)"
Conesus Lake Marine Park,Marine Facility,3,Livingston,N,N,N,,N,https://parks.ny.gov/parks/71/details.aspx,,,-77.7116005,42.77580615,"(42.77580615, -77.7116005)"
Genesee River,Other,3,Monroe,N,N,N,,N,,,,-77.61431271,43.23058471,"(43.23058471, -77.61431271)"
Washington's Headquarters,State Historic Site,8,Orange,N,N,N,,N,https://parks.ny.gov/historic-sites/17/details.aspx,,,-74.00960758,41.49770505,"(41.49770505, -74.00960758)"
Canandaigua Lake Marine Park,Marine Facility,4,Ontario,N,N,N,,N,https://parks.ny.gov/parks/3/details.aspx,,,-77.2756828,42.87666859,"(42.87666859, -77.2756828)"
Connetquot River,State Park Preserve,9,Suffolk,N,N,N,Y-A,N,https://parks.ny.gov/parks/8/details.aspx,,https://parks.ny.gov/environment/nature-centers/6/details.aspx,-73.14924969,40.76942925,"(40.76942925, -73.14924969)"
Seneca Lake,State Park,4,Ont/Sen,N,N,Y,,Y,https://parks.ny.gov/parks/125/details.aspx,,,-76.95454977,42.8739501,"(42.8739501, -76.95454977)"
Walt Whitman Birthplace,State Historic Site,9,Suffolk,N,N,N,,N,https://parks.ny.gov/historic-sites/19/details.aspx,,,-73.41176452,40.81717508,"(40.81717508, -73.41176452)"
Reservoir,State Park,1,Niagara,N,N,Y,,N,https://parks.ny.gov/parks/75/details.aspx,,,-79.01503815,43.13401154,"(43.13401154, -79.01503815)"
Alfred E. Smith/Sunken Meadow,State Park,9,Suffolk,Y,N,Y,Y-A,Y,https://parks.ny.gov/parks/37/,https://parks.ny.gov/golf/13/details.aspx,,-73.26320632,40.90999227,"(40.90999227, -73.26320632)"
Sag Harbor Golf Course,State Park,9,Suffolk,Y,N,N,,N,,https://parks.ny.gov/golf/17/details.aspx,,-72.26056664,40.99702452,"(40.99702452, -72.26056664)"
Croil Island,State Park,10,St. Lawrence,N,N,N,,N,,,,-74.97947525,44.97256811,"(44.97256811, -74.97947525)"
Woodlawn Beach,State Park,1,Erie,N,N,Y,N,Y,https://parks.ny.gov/parks/47/details.aspx,,,-78.85220785,42.7938189,"(42.7938189, -78.85220785)"
Buttermilk Falls,State Park,4,Tompkins,N,Y,Y,,Y-M,https://parks.ny.gov/parks/151/details.aspx,,,-76.51225664,42.40402596,"(42.40402596, -76.51225664)"
Newtown Battlefield,State Park,4,Chemung,N,Y,Y,,N,https://parks.ny.gov/parks/107/details.aspx,,,-76.73631727,42.04902652,"(42.04902652, -76.73631727)"
Rockefeller,State Park Preserve,7,Westchester,N,N,N,,N,https://parks.ny.gov/parks/59/details.aspx,,,-73.83253999,41.10969309,"(41.10969309, -73.83253999)"
Mary Island,State Park,10,Jefferson,N,Y,N,,N,https://parks.ny.gov/parks/40/details.aspx,,,-75.92157812,44.3655711,"(44.3655711, -75.92157812)"
Long Point,State Park,2,Chautauqua,N,N,Y,,Y,https://parks.ny.gov/parks/109/details.aspx,,,-79.4109114,42.17876065,"(42.17876065, -79.4109114)"
Betty & Wilbur Davis,State Park,5,Otsego,N,Y,N,,N,https://parks.ny.gov/parks/85/details.aspx,,,-74.83290982,42.66363969,"(42.66363969, -74.83290982)"
Golden Hill,State Park,1,Niagara,N,Y,Y,,N,https://parks.ny.gov/parks/143/details.aspx,,,-78.48015886,43.36946168,"(43.36946168, -78.48015886)"
Indian Hills,State Park,4,Steuben,Y,N,N,,N,,https://parks.ny.gov/golf/19/details.aspx,,-77.15476554,42.09305489,"(42.09305489, -77.15476554)"
Sterling Forest,State Park,8,Orange,N,N,N,Y-A,N,https://parks.ny.gov/parks/74/details.aspx,,,-74.24676588,41.21191921,"(41.21191921, -74.24676588)"
Fair Haven Beach,State Park,4,Cayuga,Y,Y,Y,,Y-M,https://parks.ny.gov/parks/12/details.aspx,https://parks.ny.gov/golf/9/details.aspx,,-76.69131068,43.34170812,"(43.34170812, -76.69131068)"
Moreau Lake,State Park,11,Saratoga,N,Y,Y,Y,Y,https://parks.ny.gov/parks/150/details.aspx,,https://parks.ny.gov/environment/nature-centers/7/details.aspx,-73.7337769,43.23321367,"(43.23321367, -73.7337769)"
Wildwood,State Park,9,Suffolk,N,Y,Y,,Y,https://parks.ny.gov/parks/68/details.aspx,,,-72.79457341,40.96049996,"(40.96049996, -72.79457341)"
Lorenzo,State Historic Site,5,Madison,N,N,N,,N,https://parks.ny.gov/historic-sites/15/details.aspx,,,-75.86569996,42.92290209,"(42.92290209, -75.86569996)"
Caumsett,State Historic Park Preserve,9,Suffolk,N,N,N,,N,https://parks.ny.gov/parks/23/details.aspx,,,-73.46867735,40.92812462,"(40.92812462, -73.46867735)"
Cedar Point,State Park,10,Jefferson,N,Y,Y,,Y,https://parks.ny.gov/parks/21/details.aspx,,,-76.19613394,44.2034892,"(44.2034892, -76.19613394)"
Nissequogue River,State Park,9,Suffolk,N,N,Y,,N,https://parks.ny.gov/parks/110/details.aspx,,,-73.2316962,40.89867044,"(40.89867044, -73.2316962)"
Olana,State Historic Site,7,Columbia,N,N,N,,N,https://parks.ny.gov/historic-sites/23/details.aspx,,,-73.82875957,42.21459514,"(42.21459514, -73.82875957)"
Athens Boat Launch,Marine Facility,11,Greene,N,N,N,,N,,,,-73.80227689,42.27295384,"(42.27295384, -73.80227689)"
Green Lakes,State Park,5,Onondaga,Y,Y,Y,Y,Y,https://parks.ny.gov/parks/172/details.aspx,https://parks.ny.gov/golf/14/details.aspx,,-75.9818848,43.04697832,"(43.04697832, -75.9818848)"
John Brown Farm,State Historic Site,11,Essex,N,N,N,,N,https://parks.ny.gov/historic-sites/29/details.aspx,,,-73.97150675,44.2495745,"(44.2495745, -73.97150675)"
Selkirk Shores,State Park,5,Oswego,N,Y,Y,,Y,https://parks.ny.gov/parks/84/details.aspx,,,-76.19844002,43.55566201,"(43.55566201, -76.19844002)"
Clark Reservation,State Park,5,Onondaga,N,N,Y,Y,N,https://parks.ny.gov/parks/126/details.aspx,,https://parks.ny.gov/environment/nature-centers/15/details.aspx,-76.09300044,42.9975225,"(42.9975225, -76.09300044)"
Devil's Hole,State Park,1,Niagara,N,N,N,,N,https://parks.ny.gov/parks/42/details.aspx,,,-79.0459607,43.13463185,"(43.13463185, -79.0459607)"
Bayswater,State Park,12,Queens,N,N,N,,N,https://parks.ny.gov/parks/86/details.aspx,,,-73.77255293,40.6128179,"(40.6128179, -73.77255293)"
Oak Orchard Marine Park,Marine Facility,3,Orleans,N,N,N,,N,https://parks.ny.gov/parks/131/details.aspx,,,-78.19636675,43.36913472,"(43.36913472, -78.19636675)"
Verona Beach,State Park,5,Oneida,N,Y,Y,,Y,https://parks.ny.gov/parks/102/details.aspx,,,-75.71658659,43.17800825,"(43.17800825, -75.71658659)"
Robert Moses,State Park,10,St. Lawrence,N,N,Y,Y-A,Y,https://parks.ny.gov/parks/51/details.aspx,,https://parks.ny.gov/environment/nature-centers/5/details.aspx,-74.82735035,45.00064012,"(45.00064012, -74.82735035)"
Donald J. Trump,State Park,7,Putnam/Westchester,N,N,N,,N,,,,-73.80405211,41.26263355,"(41.26263355, -73.80405211)"
Palisades,State Park,8,Rockland,N,N,N,,N,,,,-73.90354437,41.00004239,"(41.00004239, -73.90354437)"
Stony Creek Boat Launch,Marine Facility,10,Jefferson,N,N,N,,N,,,,-76.22920823,43.82561136,"(43.82561136, -76.22920823)"
Oriskany Battlefield,State Historic Site,5,Oneida,N,N,N,,N,https://parks.ny.gov/historic-sites/21/details.aspx,,,-75.36671039,43.1767747,"(43.1767747, -75.36671039)"
Stony Brook,State Park,4,Steuben,N,Y,Y,,Y-M,https://parks.ny.gov/parks/118/details.aspx,,,-77.69296639,42.51855953,"(42.51855953, -77.69296639)"
Saratoga Spa,State Park,11,Saratoga,Y,N,Y,Y-A,N,https://parks.ny.gov/parks/112/details.aspx,https://parks.ny.gov/golf/15/details.aspx,https://parks.ny.gov/environment/nature-centers/21/details.aspx,-73.80393559,43.05089145,"(43.05089145, -73.80393559)"
Hudson River Park,State Park,12,Manhattan,N,N,Y,,N,https://parks.ny.gov/parks/185/details.aspx,,,-74.01174318,40.73549893,"(40.73549893, -74.01174318)"
Brookhaven,State Park,9,Suffolk,N,N,N,,N,https://parks.ny.gov/parks/180/details.aspx,,,-72.86481657,40.92095004,"(40.92095004, -72.86481657)"
Higley Flow,State Park,10,St. Lawrence,N,Y,Y,Y,Y,https://parks.ny.gov/parks/58/details.aspx,,,-74.91464273,44.49829863,"(44.49829863, -74.91464273)"
James Baird,State Park,7,Dutchess,Y,N,Y,,N,https://parks.ny.gov/parks/101/details.aspx,https://parks.ny.gov/golf/1/details.aspx,,-73.79543181,41.6880051,"(41.6880051, -73.79543181)"
Harriman,State Park,8,Rock/Orange,N,Y,Y,,Y-M,https://parks.ny.gov/parks/145/details.aspx,,,-74.10169996,41.23733048,"(41.23733048, -74.10169996)"
Crailo,State Historic Site,11,Rensselaer,N,N,N,,N,https://parks.ny.gov/historic-sites/30/details.aspx,,,-73.74922568,42.63462908,"(42.63462908, -73.74922568)"
Knox Headquarters,State Historic Site,8,Orange,N,N,N,,N,https://parks.ny.gov/historic-sites/5/details.aspx,,,-74.04782194,41.45343523,"(41.45343523, -74.04782194)"
Grant Cottage,State Historic Site,11,Saratoga,N,N,N,,N,https://parks.ny.gov/historic-sites/9/details.aspx,,,-73.74541757,43.2012117,"(43.2012117, -73.74541757)"
Buckhorn Island,State Park,1,Erie,N,N,N,,N,https://parks.ny.gov/parks/174/details.aspx,,,-78.98074732,43.05851648,"(43.05851648, -78.98074732)"
Schodack Island,State Park,11,Alb/Rens,N,Y,Y,,N,https://parks.ny.gov/parks/146/details.aspx,,,-73.77652044,42.49059902,"(42.49059902, -73.77652044)"
Glimmerglass,State Park,5,Otsego,N,Y,Y,Y,Y,https://parks.ny.gov/parks/28/details.aspx,,,-74.86868392,42.79362617,"(42.79362617, -74.86868392)"
Hither Woods,Other,9,Suffolk,N,N,N,,N,,,,-71.98933313,41.0313237,"(41.0313237, -71.98933313)"
Hamlin Beach,State Park,3,Monroe,N,Y,Y,,Y-M,https://parks.ny.gov/parks/20/details.aspx,,,-77.95509767,43.3600913,"(43.3600913, -77.95509767)"
Gilgo,State Park,9,Suffolk,N,N,N,,N,https://parks.ny.gov/parks/15/details.aspx,,,-73.34293029,40.6342881,"(40.6342881, -73.34293029)"
Rock Island Lighthouse,State Park,10,Jefferson,N,N,N,,N,https://parks.ny.gov/parks/188/details.aspx,,,-76.01679557,44.28031135,"(44.28031135, -76.01679557)"
Ogden & Ruth Livingston Mills,State Park,7,Dutchess,Y,N,N,,N,https://parks.ny.gov/parks/33/details.aspx,https://parks.ny.gov/golf/21/details.aspx,,-73.93480595,41.8530054,"(41.8530054, -73.93480595)"
Wonder Lake,State Park,7,Putnam,N,N,N,,N,https://parks.ny.gov/parks/190/details.aspx,,,-73.64658631,41.49190316,"(41.49190316, -73.64658631)"
Eel Weir,State Park,10,St. Lawrence,N,Y,N,,N,https://parks.ny.gov/parks/121/details.aspx,,,-75.47592958,44.62999004,"(44.62999004, -75.47592958)"
Stony Point Battlefield,State Historic Site,8,Rockland,N,N,N,,N,https://parks.ny.gov/historic-sites/8/details.aspx,,,-73.9763735,41.24109039,"(41.24109039, -73.9763735)"
Deans Cove Boat Launch,Marine Facility,4,Seneca,N,N,N,,N,https://parks.ny.gov/parks/63/details.aspx,,,-76.76872924,42.74446151,"(42.74446151, -76.76872924)"
Sampson,State Park,4,Seneca,N,Y,Y,,Y,https://parks.ny.gov/parks/154/details.aspx,,,-76.9013257,42.72549002,"(42.72549002, -76.9013257)"
Rt 62 North Tonawanda Boat Launch,Marine Facility,1,Niagara,N,N,N,N,N,,,,-78.82723254,43.03828956,"(43.03828956, -78.82723254)"
Amsterdam Beach,State Park,9,Suffolk,N,N,N,,N,,,,-71.90026531,41.04777113,"(41.04777113, -71.90026531)"
Fillmore Glen,State Park,4,Cayuga,N,Y,Y,,Y,https://parks.ny.gov/parks/157/details.aspx,,,-76.38800625,42.69096898,"(42.69096898, -76.38800625)"
Taughannock Falls,State Park,4,Tompkins,N,Y,Y,,Y,https://parks.ny.gov/parks/62/details.aspx,,,-76.60976708,42.54073824,"(42.54073824, -76.60976708)"
Jacques Cartier,State Park,10,St. Lawrence,N,Y,Y,,Y,https://parks.ny.gov/parks/114/details.aspx,,,-75.6805192,44.55484146,"(44.55484146, -75.6805192)"
Shadmoor,State Park,9,Suffolk,N,N,N,,N,https://parks.ny.gov/parks/16/details.aspx,,,-71.92772812,41.03868098,"(41.03868098, -71.92772812)"
Black Lake Boat Launch,Marine Facility,10,St. Lawrence,N,N,N,,N,,,,-75.61250218,44.5101278,"(44.5101278, -75.61250218)"
Old Fort Niagara,State Historic Site,1,Niagara,N,N,N,,N,https://parks.ny.gov/historic-sites/31/details.aspx,,,-79.06311435,43.26259391,"(43.26259391, -79.06311435)"
Fort Montgomery,State Historic Site,8,Orange,N,N,N,,N,https://parks.ny.gov/historic-sites/28/details.aspx,,,-73.98957246,41.3243022,"(41.3243022, -73.98957246)"
Canal Park Lock 32,Marine Facility,3,Monroe,N,N,N,,N,,,,-77.54634101,43.09255115,"(43.09255115, -77.54634101)"
Brentwood,State Park,9,Suffolk,N,N,N,,N,https://parks.ny.gov/parks/187/details.aspx,,,-73.27112999,40.79155338,"(40.79155338, -73.27112999)"
Four Mile Creek,State Park,1,Niagara,N,Y,Y,,N,https://parks.ny.gov/parks/6/details.aspx,,,-78.99746851,43.27437645,"(43.27437645, -78.99746851)"
Bowman Lake,State Park,5,Chenango,N,Y,Y,,Y,https://parks.ny.gov/parks/76/details.aspx,,,-75.6806338,42.51998474,"(42.51998474, -75.6806338)"
Robert Moses,State Park,9,Suffolk,Y,N,Y,,Y-M,https://parks.ny.gov/parks/7/details.aspx,https://parks.ny.gov/golf/12/details.aspx,,-73.26514244,40.62351775,"(40.62351775, -73.26514244)"
Senate House,State Historic Site,8,Orange,N,N,N,,N,https://parks.ny.gov/historic-sites/18/details.aspx,,,-74.01888424,41.93493647,"(41.93493647, -74.01888424)"
Bonavista,State Park,4,Seneca,Y,N,N,,N,https://parks.ny.gov/parks/160/details.aspx,https://parks.ny.gov/golf/10/details.aspx,,-76.86772498,42.67319422,"(42.67319422, -76.86772498)"
Gantry Plaza,State Park,12,Queens,N,N,Y,,N,https://parks.ny.gov/parks/149/details.aspx,,,-73.95814962,40.74651899,"(40.74651899, -73.95814962)"
Johnson Hall,State Historic Site,11,Fulton,N,N,N,,N,https://parks.ny.gov/historic-sites/10/details.aspx,,,-74.38189017,43.01551188,"(43.01551188, -74.38189017)"
Clarence Fahnestock,State Park,7,Putnam,N,Y,N,Y-A,Y,https://parks.ny.gov/parks/133/details.aspx,,https://parks.ny.gov/environment/nature-centers/3/details.aspx,-73.84764739,41.45275633,"(41.45275633, -73.84764739)"
Mexico Point,State Park,5,Oswego,N,N,N,,N,,,,-76.25846408,43.5199984,"(43.5199984, -76.25846408)"
Macomb Reservation,State Park,10,Clinton,N,Y,Y,,Y,https://parks.ny.gov/parks/77/details.aspx,,,-73.61240776,44.61786492,"(44.61786492, -73.61240776)"
Wilson Hill Boat Launch,Marine Facility,10,St. Lawrence,N,N,N,,N,,,,-75.01052413,44.92871977,"(44.92871977, -75.01052413)"
Franklin Delano Roosevelt,State Park,7,Westchester,N,N,Y,,N,https://parks.ny.gov/parks/148/details.aspx,,,-73.80875691,41.28230417,"(41.28230417, -73.80875691)"
Silver Lake,State Park,3,Wyoming,N,N,N,,N,https://parks.ny.gov/parks/104/details.aspx,,,-78.05656098,42.67925422,"(42.67925422, -78.05656098)"
Lake Erie,State Park,2,Chautauqua,N,Y,Y,,Y,https://parks.ny.gov/parks/129/details.aspx,,,-79.43141787,42.42289079,"(42.42289079, -79.43141787)"
Captree,State Park,9,Suffolk,N,N,Y,,N,https://parks.ny.gov/parks/65/details.aspx,,,-73.26127359,40.63885218,"(40.63885218, -73.26127359)"
Cedar Island,State Park,10,St. Lawrence,N,Y,N,,N,https://parks.ny.gov/parks/25/details.aspx,,,-75.79052886,44.44967933,"(44.44967933, -75.79052886)"
Keuka Lake,State Park,4,Yates,N,Y,Y,,Y,https://parks.ny.gov/parks/67/details.aspx,,,-77.12858336,42.58218255,"(42.58218255, -77.12858336)"
Old Croton Aqueduct,State Historic Park,7,Westchester,N,N,N,,N,https://parks.ny.gov/parks/96/details.aspx,,,-73.86317128,41.16566387,"(41.16566387, -73.86317128)"
Napeague,State Park,9,Suffolk,N,N,N,,N,,,,-72.07589738,40.993265,"(40.993265, -72.07589738)"
Nyack Beach,State Park,8,Rockland,N,N,N,,N,https://parks.ny.gov/parks/156/details.aspx,,,-73.90865449,41.1271277,"(41.1271277, -73.90865449)"
Allegany,State Park,2,Cattaraugus,N,Y,Y,Y-A,Y-M,https://parks.ny.gov/parks/136/details.aspx,,https://parks.ny.gov/environment/nature-centers/12/details.aspx,-78.76855865,42.05475752,"(42.05475752, -78.76855865)"
Earl W. Brydges Artpark,State Park,1,Niagara,N,N,N,,N,https://parks.ny.gov/parks/113/details.aspx,,,-79.04192821,43.16561822,"(43.16561822, -79.04192821)"
Chittenango Falls,State Park,5,Madison,N,N,Y,N,N,https://parks.ny.gov/parks/130/details.aspx,,,-75.84665631,42.98148474,"(42.98148474, -75.84665631)"
Staatsburgh,State Historic Site,7,Dutchess,N,N,N,,N,https://parks.ny.gov/historic-sites/25/details.aspx,,,-73.9299489,41.85662754,"(41.85662754, -73.9299489)"
Mark Twain,State Park,4,Chemung,Y,N,N,,N,https://parks.ny.gov/parks/138/details.aspx,https://parks.ny.gov/golf/3/details.aspx,,-76.83569091,42.21166069,"(42.21166069, -76.83569091)"
Mohawk River,State Park,11,Schenectady,N,N,N,,N,,,,-73.84963984,42.80040938,"(42.80040938, -73.84963984)"
Clay Pit Ponds,State Park Preserve,12,Richmond,N,N,N,Y-A,N,https://parks.ny.gov/parks/166/details.aspx,,https://parks.ny.gov/environment/nature-centers/14/details.aspx,-74.22904609,40.54056355,"(40.54056355, -74.22904609)"
Robert G. Wehle,State Park,10,Jefferson,N,Y,N,,N,https://parks.ny.gov/parks/137/details.aspx,,,-76.27550032,43.86716908,"(43.86716908, -76.27550032)"
Helen L. McNitt,State Park,5,Madison,N,N,N,,N,https://parks.ny.gov/parks/201/details.aspx,,,-75.87410835,42.97085176,"(42.97085176, -75.87410835)"
Waterson Point,State Park,10,Jefferson,N,N,N,,N,https://parks.ny.gov/parks/48/details.aspx,,,-76.01007586,44.33917818,"(44.33917818, -76.01007586)"
Bayard Cutting Arboretum,State Park,9,Suffolk,N,N,N,N,N,https://parks.ny.gov/parks/95/details.aspx,,,-73.15775835,40.74724054,"(40.74724054, -73.15775835)"
Irondequoit Bay Marine Park,Marine Facility,3,Monroe,N,N,N,,N,https://parks.ny.gov/parks/100/details.aspx,,,-77.53971069,43.23186953,"(43.23186953, -77.53971069)"
Jones Beach,State Park,9,Nassau,N,N,Y,Y-A,Y-M,https://parks.ny.gov/parks/10/details.aspx,,https://parks.ny.gov/environment/nature-centers/4/details.aspx,-73.51642732,40.59601085,"(40.59601085, -73.51642732)"
Storm King,State Park,8,Orange,N,N,N,,N,https://parks.ny.gov/parks/152/details.aspx,,,-73.9913464,41.42564449,"(41.42564449, -73.9913464)"
Braddock Bay,State Park,3,Monroe,N,N,N,,N,,,,-77.70386572,43.29419545,"(43.29419545, -77.70386572)"
Ganondagan,State Historic Site,4,Ontario,N,N,N,,N,https://parks.ny.gov/historic-sites/26/details.aspx,,,-77.42206824,42.96482987,"(42.96482987, -77.42206824)"
Crab Island,State Park,10,Clinton,N,N,N,,N,,,,-73.41714939,44.661758,"(44.661758, -73.41714939)"
Brandy Brook Boat Launch,Marine Facility,10,St. Lawrence,N,N,N,N,N,,,,-75.1631923,44.8734346,"(44.8734346, -75.1631923)"
Strawberry Island,Other,1,Erie,N,N,N,,N,,,,-78.92249742,42.95394906,"(42.95394906, -78.92249742)"
Sackets Harbor,State Historic Site,10,Jefferson,N,N,N,,N,https://parks.ny.gov/historic-sites/7/details.aspx,,,-76.12978027,43.94630983,"(43.94630983, -76.12978027)"
Hudson River,Marine Facility,7,Columbia,N,N,N,N,N,,,,-73.79816401,42.25573309,"(42.25573309, -73.79816401)"
Saratoga Lake Marine Park,Marine Facility,11,Saratoga,N,N,N,,N,https://parks.ny.gov/parks/120/details.aspx,,,-73.72109199,43.05354647,"(43.05354647, -73.72109199)"
Schoharie Crossing,State Historic Site,11,Montgomery,N,N,Y,,N,https://parks.ny.gov/historic-sites/27/details.aspx,,,-74.26757028,42.94934485,"(42.94934485, -74.26757028)"
Buffalo Harbor,State Park,1,Erie,N,N,Y,N,N,https://parks.ny.gov/parks/191/details.aspx,,,-78.86468299,42.84638726,"(42.84638726, -78.86468299)"
Bristol Beach,State Park,8,Rockland,N,N,N,,N,,,,-73.93253108,42.10837178,"(42.10837178, -73.93253108)"
Lake Superior,State Park,8,Sullivan,N,N,N,,Y,https://parks.ny.gov/parks/87/details.aspx,,,-74.87942648,41.66793053,"(41.66793053, -74.87942648)"
Gilbert Lake,State Park,5,Otsego,N,Y,Y,,Y,https://parks.ny.gov/parks/19/details.aspx,,,-75.13246312,42.586584,"(42.586584, -75.13246312)"
Galop Island,State Park,10,St. Lawrence,N,N,N,,N,,,,-75.39276378,44.76843672,"(44.76843672, -75.39276378)"
Sandy Island Beach,State Park,5,Oswego,N,N,N,,Y,https://parks.ny.gov/parks/153/details.aspx,,,-76.195665,43.63093161,"(43.63093161, -76.195665)"
Haverstraw Beach,State Park,8,Rockland,N,N,N,,N,,,,-73.94317048,41.17799181,"(41.17799181, -73.94317048)"
Chimney Bluffs,State Park,4,Wayne,N,N,N,,N,https://parks.ny.gov/parks/43/details.aspx,,,-76.9170242,43.28094552,"(43.28094552, -76.9170242)"
Niagara Falls,State Park,1,Niagara,N,N,N,Y,N,https://parks.ny.gov/parks/46/details.aspx,,,-79.06701953,43.0867482,"(43.0867482, -79.06701953)"
Hallock,State Park Preserve,9,Suffolk,N,N,N,C,N,https://parks.ny.gov/parks/181/details.aspx,,,-72.59747381,40.99072069,"(40.99072069, -72.59747381)"
Keewaydin,State Park,10,Jefferson,N,Y,Y,,N,https://parks.ny.gov/parks/24/details.aspx,,,-75.92971103,44.32343021,"(44.32343021, -75.92971103)"
Two Rivers,State Park,4,Tioga,N,N,N,,N,https://parks.ny.gov/parks/179/details.aspx,,,-76.54731999,42.02516355,"(42.02516355, -76.54731999)"
Robert H. Treman,State Park,4,Tompkins,N,Y,Y,,Y,https://parks.ny.gov/parks/135/details.aspx,,,-76.57954421,42.40057564,"(42.40057564, -76.57954421)"
Trail View,State Park,9,Nassau,N,N,N,,N,https://parks.ny.gov/parks/39/details.aspx,,,-73.47016875,40.8141101,"(40.8141101, -73.47016875)"
Oquaga Creek,State Park,5,Broome/Delaware,N,Y,Y,,Y,https://parks.ny.gov/parks/27/details.aspx,,,-75.42467935,42.17805145,"(42.17805145, -75.42467935)"
Margaret Lewis Norrie,State Park,7,Dutchess,N,Y,N,N,N,https://parks.ny.gov/parks/171/details.aspx,,,-73.93895514,41.84153655,"(41.84153655, -73.93895514)"
Guy Park,State Historic Site,11,Montgomery,N,N,N,,N,,,,-74.20954822,42.94695201,"(42.94695201, -74.20954822)"
Walkway over the Hudson,State Historic Park,7,Dutchess,N,N,N,,N,https://parks.ny.gov/parks/178/details.aspx,,,-73.94495089,41.710587,"(41.710587, -73.94495089)"
Herkimer Home,State Historic Site,5,Herkimer,N,N,N,,N,https://parks.ny.gov/historic-sites/14/details.aspx,,,-74.81586505,43.02532856,"(43.02532856, -74.81586505)"
Wellesley Island,State Park,10,Jefferson,Y,Y,Y,Y-A,Y,https://parks.ny.gov/parks/52/details.aspx,https://parks.ny.gov/golf/7/details.aspx,https://parks.ny.gov/environment/nature-centers/2/details.aspx,-76.01544821,44.329238,"(44.329238, -76.01544821)"
Coxsackie Boat Launch,Marine Facility,11,Greene,N,N,Y,,N,,,,-73.79577523,42.35271611,"(42.35271611, -73.79577523)"
Lake Lauderdale,State Park,11,Washington,N,N,N,,Y,,,,-73.37041513,43.08508562,"(43.08508562, -73.37041513)"
Clermont,State Historic Site,7,Col/Dutch,N,N,N,,N,https://parks.ny.gov/historic-sites/16/details.aspx,,,-73.91104016,42.08330974,"(42.08330974, -73.91104016)"
